NORAD_CAT_ID,OBJECT_NAME,OBJECT_TYPE,EPOCH,MEAN_MOTION,ECCENTRICITY,INCLINATION,RA_OF_ASC_NODE,ARG_OF_PERICENTER,MEAN_ANOMALY,BSTAR,MEAN_MOTION_DOT,MEAN_MOTION_DDOT,TLE_LINE0,TLE_LINE1,TLE_LINE2,SEMIMAJOR_AXIS,PERIOD,APOGEE,PERIGEE,DECAYED
54800.0,STARLINK-5428,PAYLOAD,2023-05-03 11:14:07,15.0884439,0.0001157,53.2195,28.0873,84.5991,275.5133,-6.2339e-06,-3.87e-06,0.0,0 STARLINK-5428,1 54800U 22175AU  23123.46814222 -.00000387  00000-0 -62339-5 0  9992,2 54800  53.2195  28.0873 0001157  84.5991 275.5133 15.08844390 22879,6917.867,95.437,540.532,538.932,0.0
54800.0,STARLINK-5428,PAYLOAD,2023-05-03 20:46:26,15.08840272,0.0001214,53.218,26.3019,90.1833,269.9298,-5.8042e-05,-1.211e-05,0.0,0 STARLINK-5428,1 54800U 22175AU  23123.86558751 -.00001211  00000-0 -58042-4 0  9990,2 54800  53.2180  26.3019 0001214  90.1833 269.9298 15.08840272 20779,6917.88,95.438,540.584,538.905,0.0
54800.0,STARLINK-5428,PAYLOAD,2023-05-04 03:07:58,15.08843075,0.000126,53.219,25.113,96.9438,263.1697,-1.3364e-05,-5.01e-06,0.0,0 STARLINK-5428,1 54800U 22175AU  23124.13054358 -.00000501  00000-0 -13364-4 0  9994,2 54800  53.2190  25.1130 0001260  96.9438 263.1697 15.08843075 22974,6917.871,95.437,540.608,538.864,0.0
54800.0,STARLINK-5428,PAYLOAD,2023-05-04 20:37:13,15.08837026,0.0001382,53.2179,21.8419,94.4536,265.6614,1.8294e-05,3e-08,0.0,0 STARLINK-5428,1 54800U 22175AU  23124.85918628  .00000003  00000-0  18294-4 0  9994,2 54800  53.2179  21.8419 0001382  94.4536 265.6614 15.08837026 23089,6917.889,95.438,540.711,538.798,0.0
54800.0,STARLINK-5428,PAYLOAD,2023-05-04 23:47:59,15.08844474,0.000103,53.2191,21.2483,91.2791,268.8319,1.5267e-06,-2.63e-06,0.0,0 STARLINK-5428,1 54800U 22175AU  23124.99166198 -.00000263  00000-0  15267-5 0  9993,2 54800  53.2191  21.2483 0001030  91.2791 268.8319 15.08844474 20940,6917.867,95.437,540.444,539.019,0.0
54800.0,STARLINK-5428,PAYLOAD,2023-05-05 20:28:01,15.08829319,0.0001126,53.2187,17.3819,100.3752,259.7367,-3.9458e-05,-9.16e-06,0.0,0 STARLINK-5428,1 54800U 22175AU  23125.85279426 -.00000916  00000-0 -39458-4 0  9991,2 54800  53.2187  17.3819 0001126 100.3752 259.7367 15.08829319 23237,6917.913,95.438,540.557,538.999,0.0
54800.0,STARLINK-5428,PAYLOAD,2023-05-05 23:38:47,15.08835555,9.67e-05,53.2181,16.7873,86.3258,273.7845,-3.1803e-05,-7.94e-06,0.0,0 STARLINK-5428,1 54800U 22175AU  23125.98527075 -.00000794  00000-0 -31803-4 0  9991,2 54800  53.2181  16.7873 0000967  86.3258 273.7845 15.08835555 21098,6917.894,95.438,540.428,539.09,0.0
54800.0,STARLINK-5428,PAYLOAD,2023-05-06 23:29:33,15.08850062,9.26e-05,53.2188,12.329,91.4058,268.7041,7.4316e-05,8.96e-06,0.0,0 STARLINK-5428,1 54800U 22175AU  23126.97885949  .00000896  00000-0  74316-4 0  9995,2 54800  53.2188  12.3290 0000926  91.4058 268.7041 15.08850062 21249,6917.85,95.437,540.355,539.074,0.0
54800.0,STARLINK-5428,PAYLOAD,2023-05-07 20:09:35,15.08828951,5.12e-05,53.2184,8.4641,88.687,271.4181,-2.8001e-05,-7.33e-06,0.0,0 STARLINK-5428,1 54800U 22175AU  23127.83999994 -.00000733  00000-0 -28001-4 0  9999,2 54800  53.2184   8.4641 0000512  88.6870 271.4181 15.08828951 21374,6917.914,95.438,540.133,539.425,0.0
54800.0,STARLINK-5428,PAYLOAD,2023-05-07 21:44:59,15.08828771,8.12e-05,53.2174,8.1701,103.9009,256.2074,-2.4165e-05,-6.72e-06,0.0,0 STARLINK-5428,1 54800U 22175AU  23127.90624157 -.00000672  00000-0 -24165-4 0  9992,2 54800  53.2174   8.1701 0000812 103.9009 256.2074 15.08828771 23548,6917.915,95.438,540.341,539.218,0.0
54800.0,STARLINK-5428,PAYLOAD,2023-05-08 21:35:44,15.08857045,9.02e-05,53.2161,3.6998,74.2132,285.896,-3.9097e-05,-9.1e-06,0.0,0 STARLINK-5428,1 54800U 22175AU  23128.89982475 -.00000910  00000-0 -39097-4 0  9996,2 54800  53.2161   3.6998 0000902  74.2132 285.8960 15.08857045 23693,6917.828,95.436,540.317,539.069,0.0
54800.0,STARLINK-5428,PAYLOAD,2023-05-08 23:11:07,15.08855287,9.6e-05,53.2173,3.4061,85.8852,274.225,5.066e-05,5.19e-06,0.0,0 STARLINK-5428,1 54800U 22175AU  23128.96606305  .00000519  00000-0  50660-4 0  9991,2 54800  53.2173   3.4061 0000960  85.8852 274.2250 15.08855287 23708,6917.834,95.437,540.363,539.035,0.0
54800.0,STARLINK-5428,PAYLOAD,2023-05-09 23:01:56,15.08834923,0.000119,53.2181,358.9465,79.3806,280.732,5.3874e-05,5.7e-06,0.0,0 STARLINK-5428,1 54800U 22175AU  23129.95967781  .00000570  00000-0  53874-4 0  9996,2 54800  53.2181 358.9465 0001190  79.3806 280.7320 15.08834923 23856,6917.896,95.438,540.584,538.938,0.0
54800.0,STARLINK-5428,PAYLOAD,2023-05-10 21:17:19,15.08843743,0.0001106,53.2188,354.7822,82.5729,277.5389,-5.0308e-05,-1.088e-05,0.0,0 STARLINK-5428,1 54800U 22175AU  23130.88703450 -.00001088  00000-0 -50308-4 0  9997,2 54800  53.2188 354.7822 0001106  82.5729 277.5389 15.08843743 21836,6917.869,95.437,540.499,538.969,0.0
54800.0,STARLINK-5428,PAYLOAD,2023-05-11 21:08:07,15.08837485,0.0001176,53.2177,350.3235,76.9458,283.1665,-3.1258e-05,-7.85e-06,0.0,0 STARLINK-5428,1 54800U 22175AU  23131.88063800 -.00000785  00000-0 -31258-4 0  9992,2 54800  53.2177 350.3235 0001176  76.9458 283.1665 15.08837485 24140,6917.888,95.438,540.567,538.94,0.0
54800.0,STARLINK-5428,PAYLOAD,2023-05-12 20:58:53,15.08844955,0.0001102,53.218,345.8608,91.1542,268.9576,-4.7738e-05,-1.048e-05,0.0,0 STARLINK-5428,1 54800U 22175AU  23132.87423520 -.00001048  00000-0 -47738-4 0  9994,2 54800  53.2180 345.8608 0001102  91.1542 268.9576 15.08844955 24297,6917.865,95.437,540.493,538.968,0.0
54800.0,STARLINK-5428,PAYLOAD,2023-05-13 20:49:43,15.08831257,0.0001396,53.2178,341.3993,91.1492,268.966,5.6636e-05,6.13e-06,0.0,0 STARLINK-5428,1 54800U 22175AU  23133.86786930  .00000613  00000-0  56636-4 0  9993,2 54800  53.2178 341.3993 0001396  91.1492 268.9660 15.08831257 24443,6917.907,95.438,540.738,538.806,0.0
54800.0,STARLINK-5428,PAYLOAD,2023-05-14 06:22:02,15.08841147,0.0001309,53.2172,339.6188,87.7597,272.3545,0.00014109,1.958e-05,0.0,0 STARLINK-5428,1 54800U 22175AU  23134.26530287  .00001958  00000-0  14109-3 0  9991,2 54800  53.2172 339.6188 0001309  87.7597 272.3545 15.08841147 22341,6917.877,95.437,540.647,538.836,0.0
54800.0,STARLINK-5428,PAYLOAD,2023-05-14 20:40:28,15.08859824,0.0001347,53.2174,336.9419,93.4488,266.6658,0.00023807,3.505e-05,0.0,0 STARLINK-5428,1 54800U 22175AU  23134.86144650  .00003505  00000-0  23807-3 0  9997,2 54800  53.2174 336.9419 0001347  93.4488 266.6658 15.08859824 24596,6917.82,95.436,540.617,538.753,0.0
54800.0,STARLINK-5428,PAYLOAD,2023-05-14 23:51:14,15.08864354,0.00013,53.2173,336.3465,82.5827,277.5313,0.00023476,3.453e-05,0.0,0 STARLINK-5428,1 54800U 22175AU  23134.99392221  .00003453  00000-0  23476-3 0  9994,2 54800  53.2173 336.3465 0001300  82.5827 277.5313 15.08864354 22451,6917.806,95.436,540.57,538.772,0.0
54800.0,STARLINK-5428,PAYLOAD,2023-05-15 17:20:30,15.08859503,0.0001692,53.2177,333.0715,79.108,281.0103,5.9837e-05,6.65e-06,0.0,0 STARLINK-5428,1 54800U 22175AU  23135.72257556  .00000665  00000-0  59837-4 0  9990,2 54800  53.2177 333.0715 0001692  79.1080 281.0103 15.08859503 22563,6917.821,95.436,540.856,538.515,0.0
54800.0,STARLINK-5428,PAYLOAD,2023-05-16 06:03:35,15.08852971,0.0001931,53.2169,330.6984,82.3577,277.7634,-3.7281e-05,-8.82e-06,0.0,0 STARLINK-5428,1 54800U 22175AU  23136.25249695 -.00000882  00000-0 -37281-4 0  9996,2 54800  53.2169 330.6984 0001931  82.3577 277.7634 15.08852971 22640,6917.841,95.437,541.042,538.37,0.0
54800.0,STARLINK-5428,PAYLOAD,2023-05-17 02:43:36,15.08844075,0.0001194,53.2168,326.8321,93.2533,266.8596,-0.00026517,-4.506e-05,0.0,0 STARLINK-5428,1 54800U 22175AU  23137.11361554 -.00004506  00000-0 -26517-3 0  9997,2 54800  53.2168 326.8321 0001194  93.2533 266.8596 15.08844075 22771,6917.868,95.437,540.559,538.907,0.0
54800.0,STARLINK-5428,PAYLOAD,2023-05-17 18:37:27,15.08847933,0.00012,53.2176,323.8572,79.4879,280.6249,-0.00014564,-2.605e-05,0.0,0 STARLINK-5428,1 54800U 22175AU  23137.77600807 -.00002605  00000-0 -14564-3 0  9993,2 54800  53.2176 323.8572 0001200  79.4879 280.6249 15.08847933 22878,6917.856,95.437,540.551,538.891,0.0
54800.0,STARLINK-5428,PAYLOAD,2023-05-17 20:12:50,15.08848934,0.000121,53.2177,323.5598,79.8206,280.2922,-0.00013323,-2.408e-05,0.0,0 STARLINK-5428,1 54800U 22175AU  23137.84224675 -.00002408  00000-0 -13323-3 0  9999,2 54800  53.2177 323.5598 0001210  79.8206 280.2922 15.08848934 25041,6917.853,95.437,540.555,538.881,0.0
54800.0,STARLINK-5428,PAYLOAD,2023-05-18 05:45:08,15.08840848,0.0001278,53.2176,321.7757,79.4056,280.708,-4.219e-05,-9.59e-06,0.0,0 STARLINK-5428,1 54800U 22175AU  23138.23968691 -.00000959  00000-0 -42190-4 0  9990,2 54800  53.2176 321.7757 0001278  79.4056 280.7080 15.08840848 25103,6917.878,95.438,540.627,538.859,0.0
54800.0,STARLINK-5428,PAYLOAD,2023-05-18 20:03:36,15.08847077,0.0001079,53.2176,319.0993,82.7221,277.3893,-2.4349e-05,-6.75e-06,0.0,0 STARLINK-5428,1 54800U 22175AU  23138.83584149 -.00000675  00000-0 -24349-4 0  9999,2 54800  53.2176 319.0993 0001079  82.7221 277.3893 15.08847077 25199,6917.859,95.437,540.47,538.977,0.0
54800.0,STARLINK-5428,PAYLOAD,2023-05-19 18:19:00,15.08838788,0.0001151,53.2174,314.9361,81.0723,279.0399,6.4944e-05,7.46e-06,0.0,0 STARLINK-5428,1 54800U 22175AU  23139.76320300  .00000746  00000-0  64944-4 0  9991,2 54800  53.2174 314.9361 0001151  81.0723 279.0399 15.08838788 23175,6917.884,95.438,540.545,538.953,0.0
54800.0,STARLINK-5428,PAYLOAD,2023-05-20 18:09:47,15.08849014,0.0001115,53.2169,310.4765,82.904,277.2079,5.0252e-05,5.12e-06,0.0,0 STARLINK-5428,1 54800U 22175AU  23140.75679578  .00000512  00000-0  50252-4 0  9994,2 54800  53.2169 310.4765 0001115  82.9040 277.2079 15.08849014 23326,6917.853,95.437,540.489,538.946,0.0
54800.0,STARLINK-5428,PAYLOAD,2023-05-21 03:42:06,15.0883922,0.000102,53.2164,308.6926,77.9347,282.1759,-1.7164e-05,-5.61e-06,0.0,0 STARLINK-5428,1 54800U 22175AU  23141.15424347 -.00000561  00000-0 -17164-4 0  9992,2 54800  53.2164 308.6926 0001020  77.9347 282.1759 15.08839220 23382,6917.883,95.438,540.453,539.042,0.0
